{
    "links": {
        "self": "http://www.neowsapp.com/rest/v1/neo/3788159?api_key=iIulBulltgU6a56xZRHN4H3l9WmuAYTsLGpBGhQ2"
    },
    "id": "3788159",
    "neo_reference_id": "3788159",
    "name": "(2017 UO44)",
    "designation": "2017 UO44",
    "nasa_jpl_url": "http://ssd.jpl.nasa.gov/sbdb.cgi?sstr=3788159",
    "absolute_magnitude_h": 25.0,
    "estimated_diameter": {
        "kilometers": {
            "estimated_diameter_min": 0.02658,
            "estimated_diameter_max": 0.0594346868
        },
        "meters": {
            "estimated_diameter_min": 26.58,
            "estimated_diameter_max": 59.4346868419
        },
        "miles": {
            "estimated_diameter_min": 0.0165160412,
            "estimated_diameter_max": 0.0369309908
        },
        "feet": {
            "estimated_diameter_min": 87.2047272,
            "estimated_diameter_max": 194.9956979785
        }
    },
    "is_potentially_hazardous_asteroid": false,
    "close_approach_data": [
        {
            "close_approach_date": "2017-11-08",
            "close_approach_date_full": "2017-Nov-08 00:28",
            "epoch_date_close_approach": 1510100880000,
            "relative_velocity": {
                "kilometers_per_second": "8.2028508057",
                "kilometers_per_hour": "29530.2629005697",
                "miles_per_hour": "18348.9569673012"
            },
            "miss_distance": {
                "astronomical": "0.1001271068",
                "lunar": "38.9494445452",
                "kilometers": "14978801.906542516",
                "miles": "9307395.9150420808"
            },
            "orbiting_body": "Earth"
        }
    ],
    "orbital_data": {
        "orbit_id": "2",
        "orbit_determination_date": "2017-11-11 06:19:40",
        "first_observation_date": "2017-10-28",
        "last_observation_date": "2017-11-11",
        "data_arc_in_days": 14,
        "observations_used": 16,
        "orbit_uncertainty": "8",
        "minimum_orbit_intersection": ".0984611",
        "jupiter_tisserand_invariant": "4.175",
        "epoch_osculation": "2458055.5",
        "eccentricity": ".3438641299944428",
        "semi_major_axis": "1.654086111566487",
        "inclination": "13.69271438443125",
        "ascending_node_longitude": "43.76910292635002",
        "orbital_period": "777.02608702105",
        "perihelion_distance": "1.085305229876786",
        "perihelion_argument": "11.1171109442442",
        "aphelion_distance": "2.222866993256188",
        "perihelion_time": "2458073.616577497934",
        "mean_anomaly": "351.6065007234698",
        "mean_motion": ".4633049083077276",
        "equinox": "J2000",
        "orbit_class": {
            "orbit_class_type": "AMO",
            "orbit_class_description": "Near-Earth asteroid orbits similar to that of 1221 Amor",
            "orbit_class_range": "1.017 AU < q (perihelion) < 1.3 AU"
        }
    },
    "is_sentry_object": false
}